IRIDIUM 155             
1 43573U 18061E   21107.50058861  .00000065  00000-0  16003-4 0  9997
2 43573  86.3929 125.2162 0002655  82.8646 277.2852 14.34218389142948
IRIDIUM 154             
1 43574U 18061F   21106.57456730  .00000058  00000-0  13802-4 0  9997
2 43574  86.3934 125.6473 0002260  98.1867 261.9585 14.34217749142853
IRIDIUM 163             
1 43575U 18061G   21106.55553784  .00000061  00000-0  14847-4 0  9997
2 43575  86.3931 125.6280 0001742  87.3487 272.7908 14.34218411142822
IRIDIUM 156             
1 43576U 18061H   21106.59993472  .00000041  00000-0  75497-5 0  9991
2 43576  86.3932 125.6145 0002168  82.1998 277.9444 14.34215888142824
IRIDIUM 164             
1 43577U 18061J   21106.58090089  .00000061  00000-0  14818-4 0  9994
2 43577  86.3932 125.6341 0002117  95.8575 264.2862 14.34215854142869
IRIDIUM 159             
1 43578U 18061K   21107.45618887  .00000058  00000-0  13494-4 0  9999
2 43578  86.3930 125.2443 0002239  95.6414 264.5037 14.34216683142950
IRIDIUM 180             
1 43922U 19002A   21106.89753800  .00000087  00000-0  23857-4 0  9996
2 43922  86.3974  62.2899 0001745 112.7996 247.3384 14.34216877118483
IRIDIUM 176             
1 43923U 19002B   21106.89967348  .00000169  00000-0  22947-4 0  9991
2 43923  86.6110  62.3205 0002477  91.5271 268.6230 14.72258299121570
IRIDIUM 168             
1 43924U 19002C   21106.89119511  .00000089  00000-0  24668-4 0  9996
2 43924  86.3977  62.3164 0002168  93.5283 266.6161 14.34219865118464
IRIDIUM 173             
1 43925U 19002D   21106.87850423  .00000098  00000-0  27813-4 0  9994
2 43925  86.3974  62.2875 0002131  90.6470 269.4970 14.34215643118443
IRIDIUM 169             
1 43926U 19002E   21107.20419913  .00000074  00000-0  17630-4 0  9998
2 43926  86.4184  93.7658 0007255  78.1604 282.0407 14.38611639118937
IRIDIUM 172             
1 43927U 19002F   21106.94192456  .00000023  00000-0  12755-5 0  9997
2 43927  86.3973  62.2630 0002088  92.8767 267.2668 14.34215541118466
IRIDIUM 175             
1 43928U 19002G   21107.36925511  .00000176  00000-0  24036-4 0  9994
2 43928  86.6119  61.9561 0002282  76.1539 283.9932 14.72236960121631
IRIDIUM 171             
1 43929U 19002H   21106.92290752  .00000087  00000-0  24136-4 0  9990
2 43929  86.3983  62.3677 0002196  93.1247 267.0200 14.34216537118453
IRIDIUM 170             
1 43930U 19002J   21106.90582469  .00000172  00000-0  23286-4 0  9999
2 43930  86.6109  62.3244 0002239  89.2620 270.8854 14.72258436121588
IRIDIUM 167             
1 43931U 19002K   21106.91656140  .00000088  00000-0  24304-4 0  9997
2 43931  86.3975  62.2794 0001902 106.9083 253.2321 14.34218551118450
